{"type": "FeatureCollection", "features": [ {"type": "Feature", "properties": {"norad_id": 42969, "name": "SENTINEL-5P", "group": "resource", "lat": -15.984749254915133, "lon": 102.29281286942538, "alt_km": 831.9446530492023, "timestamp": "2025-12-12T05:47:28.429500+00:00", "meta": {"OBJECT_NAME": "SENTINEL-5P", "OBJECT_ID": "2017-064A", "EPOCH": "2025-12-11T20:24:44.039808", "MEAN_MOTION": 14.1951721, "ECCENTRICITY": 9.479e-05, "INCLINATION": 98.7784, "RA_OF_ASC_NODE": 284.4425, "ARG_OF_PERICENTER": 88.5095, "MEAN_ANOMALY": 271.6189, "EPHEMERIS_TYPE": 0, "CLASSIFICATION_TYPE": "U", "NORAD_CAT_ID": 42969, "ELEMENT_SET_NO": 999, "REV_AT_EPOCH": 42298, "BSTAR": 9.6726654e-05, "MEAN_MOTION_DOT": 1.6e-06, "MEAN_MOTION_DDOT": 0}, "tle": {"line1": "1 42969U 17064A   25345.85050972  .00000160  00000+0  96727-4 0  9994", "line2": "2 42969  98.7784 284.4425 0000947  88.5095 271.6189 14.19517210422989"}}, "geometry": {"type": "Point", "coordinates": [102.29281286942538, -15.984749254915133]}}, {"type": "Feature", "properties": {"norad_id": 42987, "name": "SKYSAT-C11", "group": "resource", "lat": 77.96471918276414, "lon": 86.07384898081695, "alt_km": 416.3978439977127, "timestamp": "2025-12-12T05:47:28.429510+00:00", "meta": {"OBJECT_NAME": "SKYSAT-C11", "OBJECT_ID": "2017-068A", "EPOCH": "2025-12-11T23:14:12.036768", "MEAN_MOTION": 15.47394077, "ECCENTRICITY": 9.987e-05, "INCLINATION": 97.414, "RA_OF_ASC_NODE": 123.4401, "ARG_OF_PERICENTER": 103.6919, "MEAN_ANOMALY": 256.4442, "EPHEMERIS_TYPE": 0, "CLASSIFICATION_TYPE": "U", "NORAD_CAT_ID": 42987, "ELEMENT_SET_NO": 999, "REV_AT_EPOCH": 45419, "BSTAR": 0.00052425573, "MEAN_MOTION_DOT": 0.0002679, "MEAN_MOTION_DDOT": 0}, "tle": {"line1": "1 42987U 17068A   25345.96819487  .00026790  00000+0  52426-3 0  9998", "line2": "2 42987  97.4140 123.4401 0000998 103.6919 256.4442 15.47394077454194"}}, "geometry": {"type": "Point", "coordinates": [86.07384898081695, 77.96471918276414]}}, {"type": "Feature", "properties": {"norad_id": 42988, "name": "SKYSAT-C10", "group": "resource", "lat": -8.69128640665144, "lon": -64.05184685884794, "alt_km": 473.50011898427783, "timestamp": "2025-12-12T05:47:28.429520+00:00", "meta": {"OBJECT_NAME": "SKYSAT-C10", "OBJECT_ID": "2017-068B", "EPOCH": "2025-12-11T21:07:59.266848", "MEAN_MOTION": 15.32032287, "ECCENTRICITY": 0.00053378, "INCLINATION": 97.4255, "RA_OF_ASC_NODE": 116.7289, "ARG_OF_PERICENTER": 105.8367, "MEAN_ANOMALY": 254.3464, "EPHEMERIS_TYPE": 0, "CLASSIFICATION_TYPE": "U", "NORAD_CAT_ID": 42988, "ELEMENT_SET_NO": 999, "REV_AT_EPOCH": 45366, "BSTAR": 0.00051102238, "MEAN_MOTION_DOT": 0.00015748, "MEAN_MOTION_DDOT": 0}, "tle": {"line1": "1 42988U 17068B   25345.88054707  .00015748  00000+0  51102-3 0  9997", "line2": "2 42988  97.4255 116.7289 0005337 105.8367 254.3464 15.32032287453662"}}, "geometry": {"type": "Point", "coordinates": [-64.05184685884794, -8.69128640665144]}}, {"type": "Feature", "properties": {"norad_id": 42989, "name": "SKYSAT-C9", "group": "resource", "lat": 28.508665659897595, "lon": 112.43249114849193, "alt_km": 453.04629569812823, "timestamp": "2025-12-12T05:47:28.429530+00:00", "meta": {"OBJECT_NAME": "SKYSAT-C9", "OBJECT_ID": "2017-068C", "EPOCH": "2025-12-11T21:50:56.343840", "MEAN_MOTION": 15.36015875, "ECCENTRICITY": 0.00106384, "INCLINATION": 97.4186, "RA_OF_ASC_NODE": 116.1574, "ARG_OF_PERICENTER": 90.1838, "MEAN_ANOMALY": 270.0625, "EPHEMERIS_TYPE": 0, "CLASSIFICATION_TYPE": "U", "NORAD_CAT_ID": 42989, "ELEMENT_SET_NO": 999, "REV_AT_EPOCH": 45395, "BSTAR": 0.00055433683, "MEAN_MOTION_DOT": 0.0001942, "MEAN_MOTION_DDOT": 0}, "tle": {"line1": "1 42989U 17068C   25345.91037435  .00019420  00000+0  55434-3 0  9994", "line2": "2 42989  97.4186 116.1574 0010638  90.1838 270.0625 15.36015875453950"}}, "geometry": {"type": "Point", "coordinates": [112.43249114849193, 28.508665659897595]}}, {"type": "Feature", "properties": {"norad_id": 42990, "name": "SKYSAT-C8", "group": "resource", "lat": 5.25111730765562, "lon": 115.55186968979224, "alt_km": 468.4734896149075, "timestamp": "2025-12-12T05:47:28.429540+00:00", "meta": {"OBJECT_NAME": "SKYSAT-C8", "OBJECT_ID": "2017-068D", "EPOCH": "2025-12-11T21:56:05.347392", "MEAN_MOTION": 15.32889856, "ECCENTRICITY": 0.00016329, "INCLINATION": 97.4277, "RA_OF_ASC_NODE": 115.9102, "ARG_OF_PERICENTER": 352.601, "MEAN_ANOMALY": 7.5208, "EPHEMERIS_TYPE": 0, "CLASSIFICATION_TYPE": "U", "NORAD_CAT_ID": 42990, "ELEMENT_SET_NO": 999, "REV_AT_EPOCH": 45358, "BSTAR": 0.00052146215, "MEAN_MOTION_DOT": 0.00016504, "MEAN_MOTION_DDOT": 0}, "tle": {"line1": "1 42990U 17068D   25345.91395078  .00016504  00000+0  52146-3 0  9993", "line2": "2 42990  97.4277 115.9102 0001632 352.6010   7.5208 15.32889856453582"}}, "geometry": {"type": "Point", "coordinates": [115.55186968979224, 5.25111730765562]}}, {"type": "Feature", "properties": {"norad_id": 42991, "name": "SKYSAT-C7", "group": "resource", "lat": -41.598209235253144, "lon": -69.37109914769523, "alt_km": 480.644093973523, "timestamp": "2025-12-12T05:47:28.429550+00:00", "meta": {"OBJECT_NAME": "SKYSAT-C7", "OBJECT_ID": "2017-068E", "EPOCH": "2025-12-11T20:59:22.535232", "MEAN_MOTION": 15.32294521, "ECCENTRICITY": 0.00076872, "INCLINATION": 97.4285, "RA_OF_ASC_NODE": 116.9127, "ARG_OF_PERICENTER": 59.5995, "MEAN_ANOMALY": 300.6005, "EPHEMERIS_TYPE": 0, "CLASSIFICATION_TYPE": "U", "NORAD_CAT_ID": 42991, "ELEMENT_SET_NO": 999, "REV_AT_EPOCH": 45364, "BSTAR": 0.00051898565, "MEAN_MOTION_DOT": 0.00016134, "MEAN_MOTION_DDOT": 0}, "tle": {"line1": "1 42991U 17068E   25345.87456638  .00016134  00000+0  51899-3 0  9992", "line2": "2 42991  97.4285 116.9127 0007687  59.5995 300.6005 15.32294521453649"}}, "geometry": {"type": "Point", "coordinates": [-69.37109914769523, -41.598209235253144]}}, {"type": "Feature", "properties": {"norad_id": 42992, "name": "SKYSAT-C6", "group": "resource", "lat": -19.676365789449466, "lon": 120.39494420768692, "alt_km": 477.4972545384635, "timestamp": "2025-12-12T05:47:28.429560+00:00", "meta": {"OBJECT_NAME": "SKYSAT-C6", "OBJECT_ID": "2017-068F", "EPOCH": "2025-12-11T22:02:13.296480", "MEAN_MOTION": 15.31460261, "ECCENTRICITY": 0.00051909, "INCLINATION": 97.4318, "RA_OF_ASC_NODE": 117.3957, "ARG_OF_PERICENTER": 84.6531, "MEAN_ANOMALY": 275.5302, "EPHEMERIS_TYPE": 0, "CLASSIFICATION_TYPE": "U", "NORAD_CAT_ID": 42992, "ELEMENT_SET_NO": 999, "REV_AT_EPOCH": 45363, "BSTAR": 0.00052080863, "MEAN_MOTION_DOT": 0.00015766, "MEAN_MOTION_DDOT": 0}, "tle": {"line1": "1 42992U 17068F   25345.91820945  .00015766  00000+0  52081-3 0  9998", "line2": "2 42992  97.4318 117.3957 0005190  84.6531 275.5302 15.31460261453639"}}, "geometry": {"type": "Point", "coordinates": [120.39494420768692, -19.676365789449466]}}, {"type": "Feature", "properties": {"norad_id": 43111, "name": "CARTOSAT-2F", "group": "resource", "lat": 69.96304454027884, "lon": -115.14162689793909, "alt_km": 500.68879385970195, "timestamp": "2025-12-12T05:47:28.429570+00:00", "meta": {"OBJECT_NAME": "CARTOSAT-2F", "OBJECT_ID": "2018-004A", "EPOCH": "2025-12-11T22:59:31.079904", "MEAN_MOTION": 15.19265639, "ECCENTRICITY": 9.762e-05, "INCLINATION": 97.4316, "RA_OF_ASC_NODE": 43.6079, "ARG_OF_PERICENTER": 137.4555, "MEAN_ANOMALY": 222.6756, "EPHEMERIS_TYPE": 0, "CLASSIFICATION_TYPE": "U", "NORAD_CAT_ID": 43111, "ELEMENT_SET_NO": 999, "REV_AT_EPOCH": 43890, "BSTAR": 0.00046494768, "MEAN_MOTION_DOT": 9.742e-05, "MEAN_MOTION_DDOT": 0}, "tle": {"line1": "1 43111U 18004A   25345.95799861  .00009742  00000+0  46495-3 0  9998", "line2": "2 43111  97.4316  43.6079 0000976 137.4555 222.6756 15.19265639438904"}}, "geometry": {"type": "Point", "coordinates": [-115.14162689793909, 69.96304454027884]}}, {"type": "Feature", "properties": {"norad_id": 43259, "name": "GAOFEN-1 02", "group": "resource", "lat": -47.56642850498319, "lon": 52.96990576652423, "alt_km": 647.4986907107104, "timestamp": "2025-12-12T05:47:28.429586+00:00", "meta": {"OBJECT_NAME": "GAOFEN-1 02", "OBJECT_ID": "2018-031A", "EPOCH": "2025-12-11T23:30:11.843136", "MEAN_MOTION": 14.76476265, "ECCENTRICITY": 0.00015875, "INCLINATION": 98.0803, "RA_OF_ASC_NODE": 43.7679, "ARG_OF_PERICENTER": 212.2097, "MEAN_ANOMALY": 147.9015, "EPHEMERIS_TYPE": 0, "CLASSIFICATION_TYPE": "U", "NORAD_CAT_ID": 43259, "ELEMENT_SET_NO": 999, "REV_AT_EPOCH": 41507, "BSTAR": 0.00018307379, "MEAN_MOTION_DOT": 1.223e-05, "MEAN_MOTION_DDOT": 0}, "tle": {"line1": "1 43259U 18031A   25345.97930374  .00001223  00000+0  18307-3 0  9996", "line2": "2 43259  98.0803  43.7679 0001587 212.2097 147.9015 14.76476265415075"}}, "geometry": {"type": "Point", "coordinates": [52.96990576652423, -47.56642850498319]}}, {"type": "Feature", "properties": {"norad_id": 43260, "name": "GAOFEN-1 03", "group": "resource", "lat": 65.63547947850678, "lon": 25.62583217749398, "alt_km": 634.4970108532607, "timestamp": "2025-12-12T05:47:28.429598+00:00", "meta": {"OBJECT_NAME": "GAOFEN-1 03", "OBJECT_ID": "2018-031B", "EPOCH": "2025-12-12T00:36:34.672320", "MEAN_MOTION": 14.76434629, "ECCENTRICITY": 0.00020346, "INCLINATION": 98.08, "RA_OF_ASC_NODE": 43.6914, "ARG_OF_PERICENTER": 325.4768, "MEAN_ANOMALY": 34.6309, "EPHEMERIS_TYPE": 0, "CLASSIFICATION_TYPE": "U", "NORAD_CAT_ID": 43260, "ELEMENT_SET_NO": 999, "REV_AT_EPOCH": 41507, "BSTAR": 0.00022273804, "MEAN_MOTION_DOT": 1.497e-05, "MEAN_MOTION_DDOT": 0}, "tle": {"line1": "1 43260U 18031B   25346.02540130  .00001497  00000+0  22274-3 0  9993", "line2": "2 43260  98.0800  43.6914 0002034 325.4768  34.6309 14.76434629415071"}}, "geometry": {"type": "Point", "coordinates": [25.62583217749398, 65.63547947850678]}}]}